{
    "links": {
        "self": "http://www.neowsapp.com/rest/v1/neo/3827140?api_key=iIulBulltgU6a56xZRHN4H3l9WmuAYTsLGpBGhQ2"
    },
    "id": "3827140",
    "neo_reference_id": "3827140",
    "name": "(2018 QR1)",
    "designation": "2018 QR1",
    "nasa_jpl_url": "http://ssd.jpl.nasa.gov/sbdb.cgi?sstr=3827140",
    "absolute_magnitude_h": 27.232,
    "estimated_diameter": {
        "kilometers": {
            "estimated_diameter_min": 0.0095094407,
            "estimated_diameter_max": 0.0212637559
        },
        "meters": {
            "estimated_diameter_min": 9.5094407449,
            "estimated_diameter_max": 21.2637559336
        },
        "miles": {
            "estimated_diameter_min": 0.0059088907,
            "estimated_diameter_max": 0.0132126813
        },
        "feet": {
            "estimated_diameter_min": 31.1989535735,
            "estimated_diameter_max": 69.7629810172
        }
    },
    "is_potentially_hazardous_asteroid": false,
    "close_approach_data": [
        {
            "close_approach_date": "2018-08-21",
            "close_approach_date_full": "2018-Aug-21 20:04",
            "epoch_date_close_approach": 1534881840000,
            "relative_velocity": {
                "kilometers_per_second": "18.1386861002",
                "kilometers_per_hour": "65299.2699608615",
                "miles_per_hour": "40574.4269376253"
            },
            "miss_distance": {
                "astronomical": "0.0028558255",
                "lunar": "1.1109161195",
                "kilometers": "427225.411891685",
                "miles": "265465.561147853"
            },
            "orbiting_body": "Moon"
        },
        {
            "close_approach_date": "2018-08-21",
            "close_approach_date_full": "2018-Aug-21 21:10",
            "epoch_date_close_approach": 1534885800000,
            "relative_velocity": {
                "kilometers_per_second": "18.0248135597",
                "kilometers_per_hour": "64889.3288148588",
                "miles_per_hour": "40319.7054516549"
            },
            "miss_distance": {
                "astronomical": "0.0005904261",
                "lunar": "0.2296757529",
                "kilometers": "88326.486952407",
                "miles": "54883.5340089366"
            },
            "orbiting_body": "Earth"
        }
    ],
    "orbital_data": {
        "orbit_id": "1",
        "orbit_determination_date": "2018-08-30 06:52:17",
        "first_observation_date": "2018-08-20",
        "last_observation_date": "2018-08-21",
        "data_arc_in_days": 1,
        "observations_used": 15,
        "orbit_uncertainty": "8",
        "minimum_orbit_intersection": ".000545792",
        "jupiter_tisserand_invariant": "4.483",
        "epoch_osculation": "2458351.5",
        "eccentricity": ".3258320250974374",
        "semi_major_axis": "1.432489606351931",
        "inclination": "31.0046877779778",
        "ascending_node_longitude": "148.5080868715335",
        "orbital_period": "626.2325626942097",
        "perihelion_distance": ".9657386169832507",
        "perihelion_argument": "215.1203992960835",
        "aphelion_distance": "1.899240595720612",
        "perihelion_time": "2458382.694710032830",
        "mean_anomaly": "342.0672122773302",
        "mean_motion": ".5748663059793467",
        "equinox": "J2000",
        "orbit_class": {
            "orbit_class_type": "APO",
            "orbit_class_description": "Near-Earth asteroid orbits which cross the Earth’s orbit similar to that of 1862 Apollo",
            "orbit_class_range": "a (semi-major axis) > 1.0 AU; q (perihelion) < 1.017 AU"
        }
    },
    "is_sentry_object": false
}